[{"OBJECT_NAME":"ONEWEB-0273","OBJECT_ID":"2021-060AA","EPOCH":"2026-02-10T03:33:29.531808","MEAN_MOTION":13.16594871,"ECCENTRICITY":0.0001438,"INCLINATION":87.9004,"RA_OF_ASC_NODE":254.0689,"ARG_OF_PERICENTER":94.3388,"MEAN_ANOMALY":265.7908,"EPHEMERIS_TYPE":0,"CLASSIFICATION_TYPE":"U","NORAD_CAT_ID":48991,"ELEMENT_SET_NO":999,"REV_AT_EPOCH":22287,"BSTAR":-0.00010481,"MEAN_MOTION_DOT":-2.7e-7,"MEAN_MOTION_DDOT":0},{"OBJECT_NAME":"ONEWEB-0274","OBJECT_ID":"2021-060AB","EPOCH":"2026-02-10T00:31:05.912544","MEAN_MOTION":13.16594286,"ECCENTRICITY":0.0001341,"INCLINATION":87.8989,"RA_OF_ASC_NODE":254.1104,"ARG_OF_PERICENTER":77.035,"MEAN_ANOMALY":283.0931,"EPHEMERIS_TYPE":0,"CLASSIFICATION_TYPE":"U","NORAD_CAT_ID":48992,"ELEMENT_SET_NO":999,"REV_AT_EPOCH":22289,"BSTAR":8.4897e-5,"MEAN_MOTION_DOT":4.5e-7,"MEAN_MOTION_DDOT":0},{"OBJECT_NAME":"ONEWEB-0275","OBJECT_ID":"2021-060AC","EPOCH":"2026-02-10T00:15:08.110656","MEAN_MOTION":13.16594037,"ECCENTRICITY":0.0001424,"INCLINATION":87.9,"RA_OF_ASC_NODE":254.0891,"ARG_OF_PERICENTER":88.8591,"MEAN_ANOMALY":271.2703,"EPHEMERIS_TYPE":0,"CLASSIFICATION_TYPE":"U","NORAD_CAT_ID":48993,"ELEMENT_SET_NO":999,"REV_AT_EPOCH":22282,"BSTAR":-4.3617e-5,"MEAN_MOTION_DOT":-4.0e-8,"MEAN_MOTION_DDOT":0},{"OBJECT_NAME":"ONEWEB-0276","OBJECT_ID":"2021-060AD","EPOCH":"2026-02-10T01:03:01.479168","MEAN_MOTION":13.16594155,"ECCENTRICITY":0.0001567,"INCLINATION":87.9003,"RA_OF_ASC_NODE":254.0818,"ARG_OF_PERICENTER":95.3218,"MEAN_ANOMALY":264.8092,"EPHEMERIS_TYPE":0,"CLASSIFICATION_TYPE":"U","NORAD_CAT_ID":48994,"ELEMENT_SET_NO":999,"REV_AT_EPOCH":22284,"BSTAR":0.00014732,"MEAN_MOTION_DOT":6.9e-7,"MEAN_MOTION_DDOT":0},{"OBJECT_NAME":"ONEWEB-0277","OBJECT_ID":"2021-060AE","EPOCH":"2026-02-10T03:10:40.751040","MEAN_MOTION":13.16597125,"ECCENTRICITY":0.0001419,"INCLINATION":87.8994,"RA_OF_ASC_NODE":254.0832,"ARG_OF_PERICENTER":90.2546,"MEAN_ANOMALY":269.8748,"EPHEMERIS_TYPE":0,"CLASSIFICATION_TYPE":"U","NORAD_CAT_ID":48995,"ELEMENT_SET_NO":999,"REV_AT_EPOCH":22284,"BSTAR":0.00016157,"MEAN_MOTION_DOT":7.5e-7,"MEAN_MOTION_DDOT":0},{"OBJECT_NAME":"ONEWEB-0278","OBJECT_ID":"2021-060AF","EPOCH":"2026-02-10T02:57:00.774432","MEAN_MOTION":13.1659472,"ECCENTRICITY":0.0001745,"INCLINATION":87.9003,"RA_OF_ASC_NODE":254.0632,"ARG_OF_PERICENTER":89.0202,"MEAN_ANOMALY":271.1129,"EPHEMERIS_TYPE":0,"CLASSIFICATION_TYPE":"U","NORAD_CAT_ID":48996,"ELEMENT_SET_NO":999,"REV_AT_EPOCH":22297,"BSTAR":0.00022567,"MEAN_MOTION_DOT":9.9e-7,"MEAN_MOTION_DDOT":0},{"OBJECT_NAME":"ONEWEB-0279","OBJECT_ID":"2021-060AG","EPOCH":"2026-02-10T03:08:24.233856","MEAN_MOTION":13.16595042,"ECCENTRICITY":0.0001213,"INCLINATION":87.9007,"RA_OF_ASC_NODE":254.0602,"ARG_OF_PERICENTER":86.2251,"MEAN_ANOMALY":273.9018,"EPHEMERIS_TYPE":0,"CLASSIFICATION_TYPE":"U","NORAD_CAT_ID":48997,"ELEMENT_SET_NO":999,"REV_AT_EPOCH":22290,"BSTAR":6.3544e-5,"MEAN_MOTION_DOT":3.7e-7,"MEAN_MOTION_DDOT":0},{"OBJECT_NAME":"ONEWEB-0280","OBJECT_ID":"2021-060AH","EPOCH":"2026-02-09T23:51:11.140416","MEAN_MOTION":13.16593816,"ECCENTRICITY":0.0001643,"INCLINATION":87.9003,"RA_OF_ASC_NODE":254.093,"ARG_OF_PERICENTER":100.793,"MEAN_ANOMALY":259.3386,"EPHEMERIS_TYPE":0,"CLASSIFICATION_TYPE":"U","NORAD_CAT_ID":48998,"ELEMENT_SET_NO":999,"REV_AT_EPOCH":22282,"BSTAR":-0.00066049,"MEAN_MOTION_DOT":-2.4e-6,"MEAN_MOTION_DDOT":0},{"OBJECT_NAME":"ONEWEB-0281","OBJECT_ID":"2021-060AJ","EPOCH":"2026-02-09T14:52:00.162912","MEAN_MOTION":13.16594556,"ECCENTRICITY":0.0001514,"INCLINATION":87.9003,"RA_OF_ASC_NODE":254.1625,"ARG_OF_PERICENTER":83.4637,"MEAN_ANOMALY":276.6666,"EPHEMERIS_TYPE":0,"CLASSIFICATION_TYPE":"U","NORAD_CAT_ID":48999,"ELEMENT_SET_NO":999,"REV_AT_EPOCH":22284,"BSTAR":-0.00012557,"MEAN_MOTION_DOT":-3.5e-7,"MEAN_MOTION_DDOT":0},{"OBJECT_NAME":"ONEWEB-0282","OBJECT_ID":"2021-060AK","EPOCH":"2026-02-10T00:42:29.964672","MEAN_MOTION":13.16594102,"ECCENTRICITY":0.0001447,"INCLINATION":87.9,"RA_OF_ASC_NODE":254.0914,"ARG_OF_PERICENTER":94.7284,"MEAN_ANOMALY":265.4012,"EPHEMERIS_TYPE":0,"CLASSIFICATION_TYPE":"U","NORAD_CAT_ID":49000,"ELEMENT_SET_NO":999,"REV_AT_EPOCH":22287,"BSTAR":0.00013096,"MEAN_MOTION_DOT":6.3e-7,"MEAN_MOTION_DDOT":0},{"OBJECT_NAME":"ONEWEB-0283","OBJECT_ID":"2021-060AL","EPOCH":"2026-02-10T02:15:58.059072","MEAN_MOTION":13.16594967,"ECCENTRICITY":0.0001346,"INCLINATION":87.9,"RA_OF_ASC_NODE":254.0784,"ARG_OF_PERICENTER":90.4398,"MEAN_ANOMALY":269.6887,"EPHEMERIS_TYPE":0,"CLASSIFICATION_TYPE":"U","NORAD_CAT_ID":49001,"ELEMENT_SET_NO":999,"REV_AT_EPOCH":22289,"BSTAR":0.00025951,"MEAN_MOTION_DOT":1.12e-6,"MEAN_MOTION_DDOT":0},{"OBJECT_NAME":"ONEWEB-0284","OBJECT_ID":"2021-060AM","EPOCH":"2026-02-10T02:06:51.611904","MEAN_MOTION":13.16594754,"ECCENTRICITY":0.0001808,"INCLINATION":87.9002,"RA_OF_ASC_NODE":254.0704,"ARG_OF_PERICENTER":99.3515,"MEAN_ANOMALY":260.7821,"EPHEMERIS_TYPE":0,"CLASSIFICATION_TYPE":"U","NORAD_CAT_ID":49002,"ELEMENT_SET_NO":999,"REV_AT_EPOCH":22287,"BSTAR":7.8167e-5,"MEAN_MOTION_DOT":4.3e-7,"MEAN_MOTION_DDOT":0},{"OBJECT_NAME":"ONEWEB-0285","OBJECT_ID":"2021-075A","EPOCH":"2026-02-09T23:20:59.586432","MEAN_MOTION":13.12444277,"ECCENTRICITY":0.0001828,"INCLINATION":87.8962,"RA_OF_ASC_NODE":15.9091,"ARG_OF_PERICENTER":85.8986,"MEAN_ANOMALY":274.2352,"EPHEMERIS_TYPE":0,"CLASSIFICATION_TYPE":"U","NORAD_CAT_ID":49075,"ELEMENT_SET_NO":999,"REV_AT_EPOCH":21852,"BSTAR":5.1097e-5,"MEAN_MOTION_DOT":3.1e-7,"MEAN_MOTION_DDOT":0},{"OBJECT_NAME":"ONEWEB-0286","OBJECT_ID":"2021-075B","EPOCH":"2026-02-09T22:55:10.379136","MEAN_MOTION":13.12441218,"ECCENTRICITY":0.0002005,"INCLINATION":87.8948,"RA_OF_ASC_NODE":15.9413,"ARG_OF_PERICENTER":76.6039,"MEAN_ANOMALY":283.5313,"EPHEMERIS_TYPE":0,"CLASSIFICATION_TYPE":"U","NORAD_CAT_ID":49076,"ELEMENT_SET_NO":999,"REV_AT_EPOCH":21787,"BSTAR":-0.0010519,"MEAN_MOTION_DOT":-3.66e-6,"MEAN_MOTION_DDOT":0},{"OBJECT_NAME":"ONEWEB-0287","OBJECT_ID":"2021-075C","EPOCH":"2026-02-09T23:21:57.826080","MEAN_MOTION":13.1765003,"ECCENTRICITY":0.0002278,"INCLINATION":87.9104,"RA_OF_ASC_NODE":31.138,"ARG_OF_PERICENTER":81.3461,"MEAN_ANOMALY":278.7928,"EPHEMERIS_TYPE":0,"CLASSIFICATION_TYPE":"U","NORAD_CAT_ID":49077,"ELEMENT_SET_NO":999,"REV_AT_EPOCH":21687,"BSTAR":6.6961e-5,"MEAN_MOTION_DOT":3.9e-7,"MEAN_MOTION_DDOT":0},{"OBJECT_NAME":"ONEWEB-0288","OBJECT_ID":"2021-075D","EPOCH":"2026-02-09T22:21:13.749696","MEAN_MOTION":13.12441561,"ECCENTRICITY":0.0001963,"INCLINATION":87.8961,"RA_OF_ASC_NODE":15.9115,"ARG_OF_PERICENTER":85.2073,"MEAN_ANOMALY":274.928,"EPHEMERIS_TYPE":0,"CLASSIFICATION_TYPE":"U","NORAD_CAT_ID":49078,"ELEMENT_SET_NO":999,"REV_AT_EPOCH":21849,"BSTAR":0.00050033,"MEAN_MOTION_DOT":1.93e-6,"MEAN_MOTION_DDOT":0},{"OBJECT_NAME":"ONEWEB-0289","OBJECT_ID":"2021-075E","EPOCH":"2026-02-09T22:28:17.502816","MEAN_MOTION":13.17649218,"ECCENTRICITY":0.0002035,"INCLINATION":87.9102,"RA_OF_ASC_NODE":31.1568,"ARG_OF_PERICENTER":99.5732,"MEAN_ANOMALY":260.5629,"EPHEMERIS_TYPE":0,"CLASSIFICATION_TYPE":"U","NORAD_CAT_ID":49079,"ELEMENT_SET_NO":999,"REV_AT_EPOCH":21744,"BSTAR":4.1278e-5,"MEAN_MOTION_DOT":2.9e-7,"MEAN_MOTION_DDOT":0}]
