ONEWEB-0273             
1 48991U 21060AA  26041.14825847 -.00000027  00000+0 -10481-3 0  9999
2 48991  87.9004 254.0689 0001438  94.3388 265.7908 13.16594871222879
ONEWEB-0274             
1 48992U 21060AB  26041.02159621  .00000045  00000+0  84897-4 0  9998
2 48992  87.8989 254.1104 0001341  77.0350 283.0931 13.16594286222895
ONEWEB-0275             
1 48993U 21060AC  26041.01051054 -.00000004  00000+0 -43617-4 0  9991
2 48993  87.9000 254.0891 0001424  88.8591 271.2703 13.16594037222825
ONEWEB-0276             
1 48994U 21060AD  26041.04376712  .00000069  00000+0  14732-3 0  9990
2 48994  87.9003 254.0818 0001567  95.3218 264.8092 13.16594155222847
ONEWEB-0277             
1 48995U 21060AE  26041.13241610  .00000075  00000+0  16157-3 0  9999
2 48995  87.8994 254.0832 0001419  90.2546 269.8748 13.16597125222849
ONEWEB-0278             
1 48996U 21060AF  26041.12292563  .00000099  00000+0  22567-3 0  9990
2 48996  87.9003 254.0632 0001745  89.0202 271.1129 13.16594720222978
ONEWEB-0279             
1 48997U 21060AG  26041.13083604  .00000037  00000+0  63544-4 0  9999
2 48997  87.9007 254.0602 0001213  86.2251 273.9018 13.16595042222901
ONEWEB-0280             
1 48998U 21060AH  26040.99387894 -.00000240  00000+0 -66049-3 0  9991
2 48998  87.9003 254.0930 0001643 100.7930 259.3386 13.16593816222829
ONEWEB-0281             
1 48999U 21060AJ  26040.61944633 -.00000035  00000+0 -12557-3 0  9998
2 48999  87.9003 254.1625 0001514  83.4637 276.6666 13.16594556222847
ONEWEB-0282             
1 49000U 21060AK  26041.02951348  .00000063  00000+0  13096-3 0  9997
2 49000  87.9000 254.0914 0001447  94.7284 265.4012 13.16594102222877
ONEWEB-0283             
1 49001U 21060AL  26041.09442198  .00000112  00000+0  25951-3 0  9991
2 49001  87.9000 254.0784 0001346  90.4398 269.6887 13.16594967222897
ONEWEB-0284             
1 49002U 21060AM  26041.08809736  .00000043  00000+0  78167-4 0  9997
2 49002  87.9002 254.0704 0001808  99.3515 260.7821 13.16594754222876
ONEWEB-0285             
1 49075U 21075A   26040.97291188  .00000031  00000+0  51097-4 0  9996
2 49075  87.8962  15.9091 0001828  85.8986 274.2352 13.12444277218523
ONEWEB-0286             
1 49076U 21075B   26040.95498124 -.00000366  00000+0 -10519-2 0  9999
2 49076  87.8948  15.9413 0002005  76.6039 283.5313 13.12441218217870
ONEWEB-0287             
1 49077U 21075C   26040.97358595  .00000039  00000+0  66961-4 0  9998
2 49077  87.9104  31.1380 0002278  81.3461 278.7928 13.17650030216879
ONEWEB-0288             
1 49078U 21075D   26040.93140914  .00000193  00000+0  50033-3 0  9992
2 49078  87.8961  15.9115 0001963  85.2073 274.9280 13.12441561218499
ONEWEB-0289             
1 49079U 21075E   26040.93631369  .00000029  00000+0  41278-4 0  9992
2 49079  87.9102  31.1568 0002035  99.5732 260.5629 13.17649218217447
